[{"OBJECT_NAME":"STARLINK-4525","OBJECT_ID":"2022-097P","EPOCH":"2026-03-09T10:01:53.842656","MEAN_MOTION":15.08842188,"ECCENTRICITY":0.00014302,"INCLINATION":53.2167,"RA_OF_ASC_NODE":125.3431,"ARG_OF_PERICENTER":93.523,"MEAN_ANOMALY":266.5925,"EPHEMERIS_TYPE":0,"CLASSIFICATION_TYPE":"U","NORAD_CAT_ID":53401,"ELEMENT_SET_NO":999,"REV_AT_EPOCH":19847,"BSTAR":-1.0760975e-5,"MEAN_MOTION_DOT":-4.59e-6,"MEAN_MOTION_DDOT":0},{"OBJECT_NAME":"JILIN-01 KUANFU 02B 5","OBJECT_ID":"2024-169E","EPOCH":"2026-03-09T22:46:28.718400","MEAN_MOTION":15.09244096,"ECCENTRICITY":0.00111722,"INCLINATION":97.556,"RA_OF_ASC_NODE":160.0628,"ARG_OF_PERICENTER":294.0678,"MEAN_ANOMALY":65.9381,"EPHEMERIS_TYPE":0,"CLASSIFICATION_TYPE":"U","NORAD_CAT_ID":61193,"ELEMENT_SET_NO":999,"REV_AT_EPOCH":8086,"BSTAR":0.00034816655,"MEAN_MOTION_DOT":5.486e-5,"MEAN_MOTION_DDOT":0}]
